[{"OBJECT_NAME":"AEROCUBE 5C","OBJECT_ID":"2015-058B","EPOCH":"2026-03-09T17:05:14.563104","MEAN_MOTION":14.90857126,"ECCENTRICITY":0.01306722,"INCLINATION":64.7674,"RA_OF_ASC_NODE":211.9094,"ARG_OF_PERICENTER":102.486,"MEAN_ANOMALY":259.0908,"EPHEMERIS_TYPE":0,"CLASSIFICATION_TYPE":"U","NORAD_CAT_ID":40965,"ELEMENT_SET_NO":999,"REV_AT_EPOCH":35082,"BSTAR":0.0004279104,"MEAN_MOTION_DOT":4.804e-5,"MEAN_MOTION_DDOT":0},{"OBJECT_NAME":"PIAST-S1","OBJECT_ID":"2025-276CM","EPOCH":"2026-03-09T17:19:42.400992","MEAN_MOTION":15.19110879,"ECCENTRICITY":0.00014695,"INCLINATION":97.4262,"RA_OF_ASC_NODE":144.0248,"ARG_OF_PERICENTER":354.6822,"MEAN_ANOMALY":5.4397,"EPHEMERIS_TYPE":0,"CLASSIFICATION_TYPE":"U","NORAD_CAT_ID":66749,"ELEMENT_SET_NO":999,"REV_AT_EPOCH":1532,"BSTAR":0.00033676553,"MEAN_MOTION_DOT":7.004e-5,"MEAN_MOTION_DDOT":0}]
