AEROCUBE 5C             
1 40965U 15058B   26068.71197411  .00004804  00000+0  42791-3 0  9997
2 40965  64.7674 211.9094 0130672 102.4860 259.0908 14.90857126350820
PIAST-S1                
1 66749U 25276CM  26068.72201852  .00007004  00000+0  33677-3 0  9992
2 66749  97.4262 144.0248 0001469 354.6822   5.4397 15.19110879 15328
